{"type":"Feature","properties":{"MUN":"STONE HARBOR BORO","COUNTY":"CAPE MAY","MUN_LABEL":"Stone Harbor Borough","MUN_TYPE":"Borough","NAME":"Stone Harbor Borough","GNIS_NAME":"Borough of Stone Harbor"},"geometry":{"type":"Polygon","coordinates":[[[-74.7647016,39.0401748],[-74.7647382,39.0401389],[-74.7647702,39.040121],[-74.7648298,39.0401208],[-74.7649409,39.040147],[-74.7649951,39.0401598],[-74.7650363,39.0401561],[-74.7651141,39.0401095],[-74.7654709,39.0397491],[-74.765549,39.0397056],[-74.7657522,39.0395521],[-74.7658776,39.0394855],[-74.7660241,39.0394315],[-74.7661614,39.0393453],[-74.766559,39.0389868],[-74.7669336,39.038614],[-74.7673311,39.0381065],[-74.7675663,39.037873],[-74.7678413,39.0374667],[-74.7681241,39.0370825],[-74.7685334,39.0365225],[-74.7688788,39.0360889],[-74.7691476,39.0357541],[-74.7692607,39.0354575],[-74.7692808,39.0353633],[-74.7701557,39.0341539],[-74.7704254,39.033882],[-74.7706529,39.033579],[-74.7709252,39.0331475],[-74.7712486,39.032596],[-74.7713987,39.0322773],[-74.7715671,39.0319372],[-74.7716948,39.0317653],[-74.7718576,39.0316358],[-74.7796977,39.0154167],[-74.7806391,39.0134687],[-74.7929239,39.0149103],[-74.7929401,39.0160744],[-74.7929471,39.0177796],[-74.792952,39.0189692],[-74.7929563,39.0200003],[-74.7930623,39.0210707],[-74.7932641,39.0220925],[-74.7935555,39.0230078],[-74.793871,39.0239603],[-74.7940181,39.0247638],[-74.7941896,39.0256794],[-74.7943282,39.0263239],[-74.7938908,39.0266663],[-74.7934519,39.0270076],[-74.7930115,39.0273478],[-74.7925697,39.0276868],[-74.7921264,39.0280246],[-74.7916816,39.0283612],[-74.7912354,39.0286967],[-74.7907877,39.0290311],[-74.7903385,39.0293642],[-74.789888,39.0296962],[-74.7897213,39.0298199],[-74.789556,39.0299447],[-74.7893922,39.0300707],[-74.7892299,39.0301979],[-74.789069,39.0303261],[-74.7889096,39.0304554],[-74.7887516,39.0305859],[-74.7885952,39.0307174],[-74.7884403,39.03085],[-74.7882869,39.0309837],[-74.7881351,39.0311185],[-74.7879848,39.0312543],[-74.7878361,39.0313911],[-74.787689,39.0315289],[-74.7875434,39.0316678],[-74.7873995,39.0318076],[-74.7872571,39.0319485],[-74.7871164,39.0320903],[-74.7869773,39.0322331],[-74.7868399,39.0323769],[-74.7867041,39.0325216],[-74.78657,39.0326672],[-74.7864376,39.0328138],[-74.7863068,39.0329613],[-74.7861778,39.0331097],[-74.7860504,39.0332589],[-74.7859248,39.0334091],[-74.7858009,39.0335601],[-74.7856788,39.0337119],[-74.785573,39.0338504],[-74.785466,39.0339883],[-74.785358,39.0341257],[-74.7845078,39.0350558],[-74.7837212,39.0358173],[-74.7830184,39.0363255],[-74.7821252,39.0370264],[-74.7814168,39.0375702],[-74.78077,39.0380537],[-74.7801082,39.0386817],[-74.7797085,39.0391646],[-74.7795453,39.0394961],[-74.7795011,39.0399568],[-74.7795012,39.0408148],[-74.7795035,39.0413979],[-74.7794948,39.0421179],[-74.7794926,39.0422949],[-74.7794699,39.0426716],[-74.7793525,39.0431074],[-74.7793234,39.0432154],[-74.7790594,39.0437628],[-74.7787522,39.0441572],[-74.7784562,39.0444511],[-74.7781139,39.0447909],[-74.7774452,39.0454281],[-74.7767128,39.0461526],[-74.7762354,39.0466772],[-74.7758981,39.0471426],[-74.7749419,39.0483147],[-74.7747636,39.048568],[-74.7744328,39.0489549],[-74.7738081,39.0496855],[-74.7735794,39.0499409],[-74.7725089,39.0511364],[-74.7713587,39.0521761],[-74.7693896,39.05401],[-74.7679634,39.0550992],[-74.7667928,39.0558629],[-74.7666242,39.0559729],[-74.7655102,39.0566994],[-74.7652713,39.0568499],[-74.7643899,39.0574063],[-74.7636134,39.0578834],[-74.7624244,39.058614],[-74.7622889,39.0587157],[-74.7608165,39.0598209],[-74.7594405,39.0609783],[-74.7586654,39.0617724],[-74.7579974,39.0625098],[-74.7577133,39.0629106],[-74.7574248,39.0633274],[-74.7569399,39.0640786],[-74.7565454,39.0648829],[-74.7563793,39.0653413],[-74.7561313,39.0659182],[-74.7559121,39.0666229],[-74.7559065,39.0667412],[-74.7559037,39.0667991],[-74.7541371,39.0658976],[-74.752408,39.0650152],[-74.7520338,39.0648235],[-74.7503818,39.0639771],[-74.7499274,39.0637417],[-74.7489165,39.0632179],[-74.7480667,39.0627832],[-74.7470612,39.0622688],[-74.7473177,39.0619432],[-74.7477087,39.0613041],[-74.7481271,39.060665],[-74.7483996,39.0602022],[-74.7489092,39.0593043],[-74.7491395,39.0590066],[-74.7493847,39.0587308],[-74.7495808,39.0585428],[-74.7495949,39.0585289],[-74.7496064,39.0585178],[-74.7500015,39.0581256],[-74.7500015,39.0581256],[-74.7500016,39.0581256],[-74.750066,39.0580476],[-74.7502839,39.0577842],[-74.7510813,39.0568201],[-74.7517846,39.0559424],[-74.7526565,39.0547782],[-74.7530809,39.0541837],[-74.7532363,39.0540296],[-74.7535151,39.05375],[-74.7543466,39.0528291],[-74.755178,39.0518903],[-74.7558403,39.0511017],[-74.7560403,39.0508142],[-74.7560709,39.0507883],[-74.7563053,39.0503715],[-74.7564287,39.0502353],[-74.7570501,39.0495867],[-74.7572756,39.0493588],[-74.7581871,39.0484156],[-74.7583888,39.0482069],[-74.7594299,39.0469529],[-74.7597948,39.0464156],[-74.7601186,39.0459178],[-74.7605564,39.0452338],[-74.7606614,39.0451012],[-74.7609765,39.04475],[-74.7613923,39.0443343],[-74.7618307,39.0438362],[-74.7624973,39.0430336],[-74.7629443,39.0423638],[-74.7631128,39.0420666],[-74.7631904,39.0419628],[-74.7633275,39.041823],[-74.7637751,39.0413606],[-74.7643233,39.0407979],[-74.7645697,39.0404612],[-74.7646656,39.0403394],[-74.7646835,39.0402392],[-74.7647016,39.0401748]]]}}
